ONEWEB-0186             
1 48229U 21031V   25257.19017289 -.00000129  00000+0 -38299-3 0  9997
2 48229  87.9094 344.6345 0001897 103.3174 256.8167 13.14504137212129
ONEWEB-0181             
1 48230U 21031W   25257.16797384  .00000216  00000+0  54817-3 0  9996
2 48230  87.9077 344.7097 0001815 106.5263 253.6066 13.14502680211977
ONEWEB-0188             
1 48231U 21031X   25257.20602382 -.00000072  00000+0 -22755-3 0  9993
2 48231  87.9085 344.6948 0001914 100.8780 259.2565 13.14504002211888
ONEWEB-0220             
1 48232U 21031Y   25257.24567879  .00000149  00000+0  36865-3 0  9999
2 48232  87.9089 344.6253 0002071 104.7209 255.4150 13.14503002212154
ONEWEB-0165             
1 48233U 21031Z   25257.19809384 -.00000141  00000+0 -41508-3 0  9998
2 48233  87.9070 344.6753 0001927 106.0515 254.0827 13.14502548212109
ONEWEB-0199             
1 48234U 21031AA  25257.25835796 -.00000032  00000+0 -12162-3 0  9995
2 48234  87.9082 344.6292 0001762  96.5209 263.6122 13.14503850212012
ONEWEB-0203             
1 48235U 21031AB  25257.24882515 -.00008694  00000+0 -23492-1 0  9994
2 48235  87.9083 344.6323 0001500  93.7905 266.3396 13.14543541212026
ONEWEB-0197             
1 48236U 21031AC  25257.22335653  .00000122  00000+0  29519-3 0  9993
2 48236  87.9081 344.6361 0002166  96.3114 263.8262 13.14503189211934
ONEWEB-0194             
1 48237U 21031AD  25257.20285499 -.00000098  00000+0 -29913-3 0  9996
2 48237  87.9088 344.6544 0001657  94.8850 265.2469 13.14503881212103
ONEWEB-0193             
1 48238U 21031AE  25256.76201869  .00000081  00000+0  18313-3 0  9998
2 48238  87.9072 344.7431 0001589  88.0900 272.0412 13.14503951211996
ONEWEB-0191             
1 48239U 21031AF  25257.22981351  .00000236  00000+0  60240-3 0  9990
2 48239  87.9092 344.6278 0001837  98.4229 261.7109 13.14504795211919
ONEWEB-0195             
1 48240U 21031AG  25257.20680791 -.00000064  00000+0 -20639-3 0  9993
2 48240  87.9089 344.6295 0001836 112.9350 247.1974 13.14500798211896
ONEWEB-0201             
1 48241U 21031AH  25257.19504926 -.00000174  00000+0 -50407-3 0  9995
2 48241  87.9089 344.6813 0002200 104.7769 255.3605 13.14505017212120
ONEWEB-0207             
1 48242U 21031AJ  25257.17510146  .00000257  00000+0  65768-3 0  9991
2 48242  87.9077 344.6445 0002008  95.9124 264.2235 13.14502987212032
ONEWEB-0208             
1 48243U 21031AK  25257.23298396  .00000248  00000+0  63433-3 0  9996
2 48243  87.9086 344.6462 0001805 106.2246 253.9083 13.14504282212055
ONEWEB-0200             
1 48244U 21031AL  25257.19651547 -.00000151  00000+0 -44265-3 0  9990
2 48244  87.9083 344.6438 0001836 103.4252 256.7083 13.14504125211973
