[{"OBJECT_NAME":"ONEWEB-0186","OBJECT_ID":"2021-031V","EPOCH":"2025-09-14T04:33:50.937696","MEAN_MOTION":13.14504137,"ECCENTRICITY":0.00018976,"INCLINATION":87.9094,"RA_OF_ASC_NODE":344.6345,"ARG_OF_PERICENTER":103.3174,"MEAN_ANOMALY":256.8167,"EPHEMERIS_TYPE":0,"CLASSIFICATION_TYPE":"U","NORAD_CAT_ID":48229,"ELEMENT_SET_NO":999,"REV_AT_EPOCH":21212,"BSTAR":-0.00038299411,"MEAN_MOTION_DOT":-1.29e-6,"MEAN_MOTION_DDOT":0},{"OBJECT_NAME":"ONEWEB-0181","OBJECT_ID":"2021-031W","EPOCH":"2025-09-14T04:01:52.939776","MEAN_MOTION":13.1450268,"ECCENTRICITY":0.00018151,"INCLINATION":87.9077,"RA_OF_ASC_NODE":344.7097,"ARG_OF_PERICENTER":106.5263,"MEAN_ANOMALY":253.6066,"EPHEMERIS_TYPE":0,"CLASSIFICATION_TYPE":"U","NORAD_CAT_ID":48230,"ELEMENT_SET_NO":999,"REV_AT_EPOCH":21197,"BSTAR":0.00054816662,"MEAN_MOTION_DOT":2.16e-6,"MEAN_MOTION_DDOT":0},{"OBJECT_NAME":"ONEWEB-0188","OBJECT_ID":"2021-031X","EPOCH":"2025-09-14T04:56:40.458048","MEAN_MOTION":13.14504002,"ECCENTRICITY":0.00019143,"INCLINATION":87.9085,"RA_OF_ASC_NODE":344.6948,"ARG_OF_PERICENTER":100.878,"MEAN_ANOMALY":259.2565,"EPHEMERIS_TYPE":0,"CLASSIFICATION_TYPE":"U","NORAD_CAT_ID":48231,"ELEMENT_SET_NO":999,"REV_AT_EPOCH":21188,"BSTAR":-0.00022754706,"MEAN_MOTION_DOT":-7.2e-7,"MEAN_MOTION_DDOT":0},{"OBJECT_NAME":"ONEWEB-0220","OBJECT_ID":"2021-031Y","EPOCH":"2025-09-14T05:53:46.647456","MEAN_MOTION":13.14503002,"ECCENTRICITY":0.00020712,"INCLINATION":87.9089,"RA_OF_ASC_NODE":344.6253,"ARG_OF_PERICENTER":104.7209,"MEAN_ANOMALY":255.415,"EPHEMERIS_TYPE":0,"CLASSIFICATION_TYPE":"U","NORAD_CAT_ID":48232,"ELEMENT_SET_NO":999,"REV_AT_EPOCH":21215,"BSTAR":0.00036864693,"MEAN_MOTION_DOT":1.49e-6,"MEAN_MOTION_DDOT":0},{"OBJECT_NAME":"ONEWEB-0165","OBJECT_ID":"2021-031Z","EPOCH":"2025-09-14T04:45:15.307776","MEAN_MOTION":13.14502548,"ECCENTRICITY":0.00019277,"INCLINATION":87.907,"RA_OF_ASC_NODE":344.6753,"ARG_OF_PERICENTER":106.0515,"MEAN_ANOMALY":254.0827,"EPHEMERIS_TYPE":0,"CLASSIFICATION_TYPE":"U","NORAD_CAT_ID":48233,"ELEMENT_SET_NO":999,"REV_AT_EPOCH":21210,"BSTAR":-0.00041508006,"MEAN_MOTION_DOT":-1.41e-6,"MEAN_MOTION_DDOT":0},{"OBJECT_NAME":"ONEWEB-0199","OBJECT_ID":"2021-031AA","EPOCH":"2025-09-14T06:12:02.127744","MEAN_MOTION":13.1450385,"ECCENTRICITY":0.0001762,"INCLINATION":87.9082,"RA_OF_ASC_NODE":344.6292,"ARG_OF_PERICENTER":96.5209,"MEAN_ANOMALY":263.6122,"EPHEMERIS_TYPE":0,"CLASSIFICATION_TYPE":"U","NORAD_CAT_ID":48234,"ELEMENT_SET_NO":999,"REV_AT_EPOCH":21201,"BSTAR":-0.0001216219,"MEAN_MOTION_DOT":-3.2e-7,"MEAN_MOTION_DDOT":0},{"OBJECT_NAME":"ONEWEB-0203","OBJECT_ID":"2021-031AB","EPOCH":"2025-09-14T05:58:18.492960","MEAN_MOTION":13.14543541,"ECCENTRICITY":0.00015002,"INCLINATION":87.9083,"RA_OF_ASC_NODE":344.6323,"ARG_OF_PERICENTER":93.7905,"MEAN_ANOMALY":266.3396,"EPHEMERIS_TYPE":0,"CLASSIFICATION_TYPE":"U","NORAD_CAT_ID":48235,"ELEMENT_SET_NO":999,"REV_AT_EPOCH":21202,"BSTAR":-0.023491994,"MEAN_MOTION_DOT":-8.694e-5,"MEAN_MOTION_DDOT":0},{"OBJECT_NAME":"ONEWEB-0197","OBJECT_ID":"2021-031AC","EPOCH":"2025-09-14T05:21:38.004192","MEAN_MOTION":13.14503189,"ECCENTRICITY":0.00021662,"INCLINATION":87.9081,"RA_OF_ASC_NODE":344.6361,"ARG_OF_PERICENTER":96.3114,"MEAN_ANOMALY":263.8262,"EPHEMERIS_TYPE":0,"CLASSIFICATION_TYPE":"U","NORAD_CAT_ID":48236,"ELEMENT_SET_NO":999,"REV_AT_EPOCH":21193,"BSTAR":0.00029519157,"MEAN_MOTION_DOT":1.22e-6,"MEAN_MOTION_DDOT":0},{"OBJECT_NAME":"ONEWEB-0194","OBJECT_ID":"2021-031AD","EPOCH":"2025-09-14T04:52:06.671136","MEAN_MOTION":13.14503881,"ECCENTRICITY":0.00016576,"INCLINATION":87.9088,"RA_OF_ASC_NODE":344.6544,"ARG_OF_PERICENTER":94.885,"MEAN_ANOMALY":265.2469,"EPHEMERIS_TYPE":0,"CLASSIFICATION_TYPE":"U","NORAD_CAT_ID":48237,"ELEMENT_SET_NO":999,"REV_AT_EPOCH":21210,"BSTAR":-0.00029913435,"MEAN_MOTION_DOT":-9.8e-7,"MEAN_MOTION_DDOT":0},{"OBJECT_NAME":"ONEWEB-0193","OBJECT_ID":"2021-031AE","EPOCH":"2025-09-13T18:17:18.414816","MEAN_MOTION":13.14503951,"ECCENTRICITY":0.00015897,"INCLINATION":87.9072,"RA_OF_ASC_NODE":344.7431,"ARG_OF_PERICENTER":88.09,"MEAN_ANOMALY":272.0412,"EPHEMERIS_TYPE":0,"CLASSIFICATION_TYPE":"U","NORAD_CAT_ID":48238,"ELEMENT_SET_NO":999,"REV_AT_EPOCH":21199,"BSTAR":0.00018313365,"MEAN_MOTION_DOT":8.1e-7,"MEAN_MOTION_DDOT":0},{"OBJECT_NAME":"ONEWEB-0191","OBJECT_ID":"2021-031AF","EPOCH":"2025-09-14T05:30:55.887264","MEAN_MOTION":13.14504795,"ECCENTRICITY":0.00018377,"INCLINATION":87.9092,"RA_OF_ASC_NODE":344.6278,"ARG_OF_PERICENTER":98.4229,"MEAN_ANOMALY":261.7109,"EPHEMERIS_TYPE":0,"CLASSIFICATION_TYPE":"U","NORAD_CAT_ID":48239,"ELEMENT_SET_NO":999,"REV_AT_EPOCH":21191,"BSTAR":0.00060239877,"MEAN_MOTION_DOT":2.36e-6,"MEAN_MOTION_DDOT":0},{"OBJECT_NAME":"ONEWEB-0195","OBJECT_ID":"2021-031AG","EPOCH":"2025-09-14T04:57:48.203424","MEAN_MOTION":13.14500798,"ECCENTRICITY":0.00018364,"INCLINATION":87.9089,"RA_OF_ASC_NODE":344.6295,"ARG_OF_PERICENTER":112.935,"MEAN_ANOMALY":247.1974,"EPHEMERIS_TYPE":0,"CLASSIFICATION_TYPE":"U","NORAD_CAT_ID":48240,"ELEMENT_SET_NO":999,"REV_AT_EPOCH":21189,"BSTAR":-0.00020638523,"MEAN_MOTION_DOT":-6.4e-7,"MEAN_MOTION_DDOT":0},{"OBJECT_NAME":"ONEWEB-0201","OBJECT_ID":"2021-031AH","EPOCH":"2025-09-14T04:40:52.256064","MEAN_MOTION":13.14505017,"ECCENTRICITY":0.00022001,"INCLINATION":87.9089,"RA_OF_ASC_NODE":344.6813,"ARG_OF_PERICENTER":104.7769,"MEAN_ANOMALY":255.3605,"EPHEMERIS_TYPE":0,"CLASSIFICATION_TYPE":"U","NORAD_CAT_ID":48241,"ELEMENT_SET_NO":999,"REV_AT_EPOCH":21212,"BSTAR":-0.0005040736,"MEAN_MOTION_DOT":-1.74e-6,"MEAN_MOTION_DDOT":0},{"OBJECT_NAME":"ONEWEB-0207","OBJECT_ID":"2021-031AJ","EPOCH":"2025-09-14T04:12:08.766144","MEAN_MOTION":13.14502987,"ECCENTRICITY":0.00020086,"INCLINATION":87.9077,"RA_OF_ASC_NODE":344.6445,"ARG_OF_PERICENTER":95.9124,"MEAN_ANOMALY":264.2235,"EPHEMERIS_TYPE":0,"CLASSIFICATION_TYPE":"U","NORAD_CAT_ID":48242,"ELEMENT_SET_NO":999,"REV_AT_EPOCH":21203,"BSTAR":0.00065767733,"MEAN_MOTION_DOT":2.57e-6,"MEAN_MOTION_DDOT":0},{"OBJECT_NAME":"ONEWEB-0208","OBJECT_ID":"2021-031AK","EPOCH":"2025-09-14T05:35:29.814144","MEAN_MOTION":13.14504282,"ECCENTRICITY":0.00018055,"INCLINATION":87.9086,"RA_OF_ASC_NODE":344.6462,"ARG_OF_PERICENTER":106.2246,"MEAN_ANOMALY":253.9083,"EPHEMERIS_TYPE":0,"CLASSIFICATION_TYPE":"U","NORAD_CAT_ID":48243,"ELEMENT_SET_NO":999,"REV_AT_EPOCH":21205,"BSTAR":0.00063433048,"MEAN_MOTION_DOT":2.48e-6,"MEAN_MOTION_DDOT":0},{"OBJECT_NAME":"ONEWEB-0200","OBJECT_ID":"2021-031AL","EPOCH":"2025-09-14T04:42:58.936608","MEAN_MOTION":13.14504125,"ECCENTRICITY":0.00018367,"INCLINATION":87.9083,"RA_OF_ASC_NODE":344.6438,"ARG_OF_PERICENTER":103.4252,"MEAN_ANOMALY":256.7083,"EPHEMERIS_TYPE":0,"CLASSIFICATION_TYPE":"U","NORAD_CAT_ID":48244,"ELEMENT_SET_NO":999,"REV_AT_EPOCH":21197,"BSTAR":-0.00044264713,"MEAN_MOTION_DOT":-1.51e-6,"MEAN_MOTION_DDOT":0}]
